SPACEBEE-155            
1 52416U 22047Y   23319.19798853  .00046364  00000+0  12422-2 0  9996
2 52416  97.4078  42.2965 0006284 179.6184 180.5067 15.37841663 86767
SPACEBEE-154            
1 52417U 22047Z   23319.17946898  .00048924  00000+0  12825-2 0  9990
2 52417  97.4102  42.7212 0006010 175.7760 184.3537 15.38503822 86789
SPACEBEE-167            
1 55087U 23001CG  23319.15627593  .00023570  00000+0  91152-3 0  9994
2 55087  97.4569  18.1830 0012435 189.6255 170.4747 15.26147869 48066
SPACEBEE-163            
1 55089U 23001CJ  23319.15702928  .00028587  00000+0  10454-2 0  9990
2 55089  97.4550  18.4578 0011957 189.6174 170.4838 15.27965173 48088
SPACEBEE-164            
1 55091U 23001CL  23318.89177425  .00025133  00000+0  95178-3 0  9992
2 55091  97.4565  18.0646 0012623 189.9390 170.1601 15.26829268 48036
SPACEBEE-166            
1 55092U 23001CM  23318.60045686  .00024375  00000+0  87766-3 0  9996
2 55092  97.4552  18.1225 0013724 191.1636 168.9302 15.28485933 48018
SPACEBEE-165            
1 55094U 23001CP  23319.16802470  .00026102  00000+0  97379-3 0  9993
2 55094  97.4563  18.4498 0011952 187.7053 172.4004 15.27324381 48086
SPACEBEE-162            
1 55095U 23001CQ  23318.40623592  .00023158  00000+0  87253-3 0  9994
2 55095  97.4565  17.6426 0012807 190.6544 169.4425 15.27012726 47965
SPACEBEE-161            
1 55096U 23001CR  23318.39349138  .00024323  00000+0  91257-3 0  9998
2 55096  97.4567  17.6577 0012691 190.8992 169.1974 15.27143962 47968
SPACEBEE-160            
1 55097U 23001CS  23318.90758997  .00026730  00000+0  99780-3 0  9996
2 55097  97.4563  18.1892 0012818 188.8840 171.2174 15.27289826 48047
SPACEBEE-156            
1 55099U 23001CU  23319.41716383  .00024518  00000+0  91077-3 0  9991
2 55099  97.4562  18.7354 0012799 186.9614 173.1449 15.27469993 48123
SPACEBEE-158            
1 55100U 23001CV  23318.39822996  .00024700  00000+0  92656-3 0  9995
2 55100  97.4579  17.6747 0013298 191.9143 168.1783 15.27137928 47962
SPACEBEE-159            
1 55101U 23001CW  23318.41479641  .00025973  00000+0  94079-3 0  9998
2 55101  97.4567  17.9328 0013764 191.2495 168.8439 15.28276791 47989
SPACEBEE-157            
1 55102U 23001CX  23319.15966522  .00028633  00000+0  10282-2 0  9999
2 55102  97.4550  18.7204 0012240 189.1378 170.9640 15.28559326 48109
SPACEBEE-179            
1 56969U 23084AP  23319.28642093  .00019701  00000+0  91506-3 0  9995
2 56969  97.5267  74.4876 0013309  35.5228 324.6890 15.19964876 23553
SPACEBEE-177            
1 56972U 23084AS  23319.32842550  .00020095  00000+0  91755-3 0  9998
2 56972  97.5273  74.5913 0013345  34.8321 325.3785 15.20549130 23569
SPACEBEE-178            
1 56973U 23084AT  23319.28878315  .00021455  00000+0  10003-2 0  9999
2 56973  97.5281  74.5068 0013936  37.8109 322.4102 15.19808263 23556
SPACEBEE-176            
1 56975U 23084AV  23318.54633228  .00019540  00000+0  90197-3 0  9996
2 56975  97.5270  73.7910 0013659  36.9325 323.2848 15.20175080 23445
SPACEBEE-174            
1 56976U 23084AW  23318.80117247  .00019740  00000+0  90720-3 0  9998
2 56976  97.5272  74.0672 0013679  36.4184 323.7979 15.20324222 23485
SPACEBEE-173            
1 56978U 23084AY  23319.32307917  .00019972  00000+0  91548-3 0  9999
2 56978  97.5276  74.6018 0013938  34.0196 326.1930 15.20408189 23564
SPACEBEE-172            
1 56979U 23084AZ  23318.60814845  .00020440  00000+0  94055-3 0  9991
2 56979  97.5271  73.8618 0014058  37.4675 322.7537 15.20268836 23456
SPACEBEE-171            
1 56980U 23084BA  23319.31982799  .00020168  00000+0  92311-3 0  9996
2 56980  97.5275  74.6075 0013980  34.2134 325.9999 15.20455714 23568
SPACEBEE-169            
1 56982U 23084BC  23318.29939323  .00019739  00000+0  91413-3 0  9993
2 56982  97.5258  73.4936 0014231  38.2354 321.9888 15.20053449 23407
SPACEBEE-170            
1 56983U 23084BD  23319.32461476  .00019518  00000+0  89913-3 0  9995
2 56983  97.5283  74.6074 0013553  33.2911 326.9174 15.20247929 23560
SPACEBEE-168            
1 56984U 23084BE  23319.31517114  .00022940  00000+0  10413-2 0  9997
2 56984  97.5284  74.6452 0014161  32.6419 327.5689 15.20713286 23566
SPACEBEE-175            
1 56985U 23084BF  23319.30309401  .00018460  00000+0  84562-3 0  9994
2 56985  97.5282  74.6379 0015091  38.3310 321.8995 15.20432288 23566
